STARLINK-30473          
1 57893U 23146C   26178.92603695  .00002569  00000+0  10280-3 0  9997
2 57893  43.0017  51.7424 0001401 271.2973  88.7718 15.27593529153915
STARLINK-30443          
1 57894U 23146D   26178.38498106  .00000163  00000+0  15482-4 0  9995
2 57894  43.0069  54.6251 0001688 257.9483 102.1180 15.27554090153832
STARLINK-30467          
1 57895U 23146E   26178.63495993 -.00000385  00000+0 -44559-5 0  9991
2 57895  43.0048  53.0625 0001108 268.0086  92.0638 15.27572393153861
STARLINK-30469          
1 57896U 23146F   26178.91192319 -.00000232  00000+0  11197-5 0  9991
2 57896  43.0059  51.6979 0001654 256.9591 103.1076 15.27577811153919
STARLINK-30474          
1 57897U 23146G   26178.91449729 -.00001020  00000+0 -27545-4 0  9992
2 57897  43.0051  51.7203 0002006 281.4365  78.6262 15.27576999153916
STARLINK-30479          
1 57898U 23146H   26178.91835028  .00001246  00000+0  54823-4 0  9991
2 57898  43.0019  51.7436 0001699 273.7590  86.3068 15.27564484153916
STARLINK-30481          
1 57899U 23146J   26178.92220086  .00001861  00000+0  77143-4 0  9998
2 57899  42.9995  51.7737 0000774 239.7136 120.3639 15.27577669153915
STARLINK-30457          
1 57900U 23146K   26178.94019343 -.00000072  00000+0  69091-5 0  9993
2 57900  43.0023  51.9000 0001375 265.6308  94.4386 15.27576121152858
STARLINK-30472          
1 57901U 23146L   26178.96753144  .00003169  00000+0  12465-3 0  9990
2 57901  43.0051  47.8447 0001099 278.4775  81.5952 15.27571662152909
STARLINK-30462          
1 57902U 23146M   26178.92990688  .00004003  00000+0  15496-3 0  9998
2 57902  43.0019  51.8297 0001051 265.7836  94.2895 15.27571419153871
STARLINK-30449          
1 57903U 23146N   26178.37855393 -.00000649  00000+0 -14065-4 0  9997
2 57903  43.0055  54.5689 0001085 259.0608 101.0122 15.27571929152771
STARLINK-30466          
1 57904U 23146P   26178.67222157  .00001226  00000+0  54091-4 0  9990
2 57904  43.0008  53.3366 0001151 276.1010  83.9711 15.27567520152819
STARLINK-30428          
1 57906U 23146R   26178.93633267  .00003108  00000+0  12242-3 0  9991
2 57906  43.0003  51.8732 0000619 266.5737  93.5044 15.27574682152850
STARLINK-30482          
1 57907U 23146S   26178.94789994  .00001657  00000+0  69756-4 0  9992
2 57907  43.0036  51.9629 0001463 267.7963  92.2721 15.27568322152868
STARLINK-30464          
1 57908U 23146T   26178.94479256  .00004380  00000+0  16838-3 0  9998
2 57908  42.9985  55.3285 0001715 272.6039  87.4616 15.27624124152812
STARLINK-30463          
1 57909U 23146U   26178.95560312  .00001055  00000+0  47848-4 0  9996
2 57909  43.0046  52.0159 0000823 269.7926  90.2832 15.27584969152856
STARLINK-30453          
1 57910U 23146V   26178.93940033 -.00000658  00000+0 -14375-4 0  9997
2 57910  43.0013  48.4961 0001598 271.7617  88.3051 15.27577053152893
STARLINK-30478          
1 57911U 23146W   26178.63752439 -.00001935  00000+0 -60826-4 0  9997
2 57911  43.0051  53.0698 0001569 252.8555 107.2125 15.27565512153873
STARLINK-30477          
1 57912U 23146X   26178.63672991  .00000036  00000+0  10821-4 0  9991
2 57912  43.0059  49.6639 0001526 259.9330 100.1349 15.27582952153912
STARLINK-30450          
1 57913U 23147A   26178.94643966 -.00002248  00000+0 -72210-4 0  9996
2 57913  43.0040  62.2592 0002123 279.3857  80.6754 15.27568504153465
STARLINK-30483          
1 57914U 23147B   26178.96075076  .00000814  00000+0  39100-4 0  9996
2 57914  43.0011 276.8760 0001057 273.1950  86.8781 15.27562567155176
STARLINK-30454          
1 57915U 23147C   26178.95413982  .00001036  00000+0  47161-4 0  9991
2 57915  43.0017  62.3133 0001267 241.4391 118.6333 15.27576735153464
STARLINK-30501          
1 57917U 23147E   26178.95671558 -.00038900  00000+0 -14120-2 0  9997
2 57917  42.9963  62.3274 0002080 271.0853  88.9760 15.27567183153488
STARLINK-30499          
1 57918U 23147F   26178.68135635  .00000653  00000+0  33247-4 0  9994
2 57918  43.0014 279.0493 0001327 264.5657  95.5043 15.27569294155159
STARLINK-30496          
1 57919U 23147G   26178.70674573  .00009242  00000+0  34490-3 0  9990
2 57919  43.0039  63.8976 0000937 233.9464 126.1301 15.27584048153457
STARLINK-30485          
1 57920U 23147H   26178.97213624 -.00000044  00000+0  79205-5 0  9994
2 57920  43.0017  62.4494 0001265 259.8320 100.2389 15.27575791153496
STARLINK-30492          
1 57921U 23147J   26178.97855858  .00001054  00000+0  47851-4 0  9998
2 57921  43.0028  62.4939 0001574 272.1689  87.8982 15.27565926153467
STARLINK-30440          
1 57923U 23147L   26178.73626725  .00003066  00000+0  12081-3 0  9994
2 57923  42.9997  64.1047 0001012 257.6791 102.3948 15.27600310153451
STARLINK-30487          
1 57924U 23147M   26178.98191523  .00000378  00000+0  23277-4 0  9998
2 57924  42.9997  65.9011 0001814 275.8970  84.1675 15.27577243153455
STARLINK-30452          
1 57925U 23147N   26178.73885069  .00002116  00000+0  86408-4 0  9994
2 57925  43.0061  64.1288 0001955 262.5267  97.5363 15.27576346153427
