OBJECT_NAME,OBJECT_ID,EPOCH,MEAN_MOTION,ECCENTRICITY,INCLINATION,RA_OF_ASC_NODE,ARG_OF_PERICENTER,MEAN_ANOMALY,EPHEMERIS_TYPE,CLASSIFICATION_TYPE,NORAD_CAT_ID,ELEMENT_SET_NO,REV_AT_EPOCH,BSTAR,MEAN_MOTION_DOT,MEAN_MOTION_DDOT
STARLINK-30473,2023-146C,2026-06-27T22:13:29.592480,15.27593529,.00014012,43.0017,51.7424,271.2973,88.7718,0,U,57893,999,15391,.10280387E-3,.2569E-4,0
STARLINK-30443,2023-146D,2026-06-27T09:14:22.363584,15.27554090,.00016886,43.0069,54.6251,257.9483,102.1180,0,U,57894,999,15383,.15482076E-4,.163E-5,0
STARLINK-30467,2023-146E,2026-06-27T15:14:20.537952,15.27572393,.00011088,43.0048,53.0625,268.0086,92.0638,0,U,57895,999,15386,-.44559E-5,-.385E-5,0
STARLINK-30469,2023-146F,2026-06-27T21:53:10.163616,15.27577811,.00016545,43.0059,51.6979,256.9591,103.1076,0,U,57896,999,15391,.1119667E-5,-.232E-5,0
STARLINK-30474,2023-146G,2026-06-27T21:56:52.565856,15.27576999,.00020068,43.0051,51.7203,281.4365,78.6262,0,U,57897,999,15391,-.27544613E-4,-.102E-4,0
STARLINK-30479,2023-146H,2026-06-27T22:02:25.464192,15.27564484,.00016993,43.0019,51.7436,273.7590,86.3068,0,U,57898,999,15391,.54822807E-4,.1246E-4,0
STARLINK-30481,2023-146J,2026-06-27T22:07:58.154304,15.27577669,.00007749,42.9995,51.7737,239.7136,120.3639,0,U,57899,999,15391,.77142776E-4,.1861E-4,0
STARLINK-30457,2023-146K,2026-06-27T22:33:52.712352,15.27576121,.00013755,43.0023,51.9000,265.6308,94.4386,0,U,57900,999,15285,.6909087E-5,-.72E-6,0
STARLINK-30472,2023-146L,2026-06-27T23:13:14.716416,15.27571662,.00010994,43.0051,47.8447,278.4775,81.5952,0,U,57901,999,15290,.12464772E-3,.3169E-4,0
STARLINK-30462,2023-146M,2026-06-27T22:19:03.954432,15.27571419,.00010513,43.0019,51.8297,265.7836,94.2895,0,U,57902,999,15387,.15495711E-3,.4003E-4,0
STARLINK-30449,2023-146N,2026-06-27T09:05:07.059552,15.27571929,.00010855,43.0055,54.5689,259.0608,101.0122,0,U,57903,999,15277,-.14064766E-4,-.649E-5,0
STARLINK-30466,2023-146P,2026-06-27T16:07:59.943648,15.27567520,.00011516,43.0008,53.3366,276.1010,83.9711,0,U,57904,999,15281,.54091017E-4,.1226E-4,0
STARLINK-30428,2023-146R,2026-06-27T22:28:19.142688,15.27574682,.0000619,43.0003,51.8732,266.5737,93.5044,0,U,57906,999,15285,.122417E-3,.3108E-4,0
STARLINK-30482,2023-146S,2026-06-27T22:44:58.554816,15.27568322,.00014636,43.0036,51.9629,267.7963,92.2721,0,U,57907,999,15286,.69755834E-4,.1657E-4,0
STARLINK-30464,2023-146T,2026-06-27T22:40:30.077184,15.27624124,.0001715,42.9985,55.3285,272.6039,87.4616,0,U,57908,999,15281,.1683781E-3,.438E-4,0
STARLINK-30463,2023-146U,2026-06-27T22:56:04.109568,15.27584969,.00008237,43.0046,52.0159,269.7926,90.2832,0,U,57909,999,15285,.47847552E-4,.1055E-4,0
STARLINK-30453,2023-146V,2026-06-27T22:32:44.188512,15.27577053,.00015981,43.0013,48.4961,271.7617,88.3051,0,U,57910,999,15289,-.1437531E-4,-.658E-5,0
STARLINK-30478,2023-146W,2026-06-27T15:18:02.107296,15.27565512,.00015693,43.0051,53.0698,252.8555,107.2125,0,U,57911,999,15387,-.60825884E-4,-.1935E-4,0
STARLINK-30477,2023-146X,2026-06-27T15:16:53.464224,15.27582952,.00015266,43.0059,49.6639,259.9330,100.1349,0,U,57912,999,15391,.10820663E-4,.36E-6,0
STARLINK-30450,2023-147A,2026-06-27T22:42:52.386624,15.27568504,.00021239,43.0040,62.2592,279.3857,80.6754,0,U,57913,999,15346,-.72209891E-4,-.2248E-4,0
STARLINK-30483,2023-147B,2026-06-27T23:03:28.865664,15.27562567,.0001057,43.0011,276.8760,273.1950,86.8781,0,U,57914,999,15517,.39100421E-4,.814E-5,0
STARLINK-30454,2023-147C,2026-06-27T22:53:57.680448,15.27576735,.0001267,43.0017,62.3133,241.4391,118.6333,0,U,57915,999,15346,.47161399E-4,.1036E-4,0
STARLINK-30501,2023-147E,2026-06-27T22:57:40.226112,15.27567183,.00020809,42.9963,62.3274,271.0853,88.9760,0,U,57917,999,15348,-.14119676E-2,-.389E-3,0
STARLINK-30499,2023-147F,2026-06-27T16:21:09.188640,15.27569294,.00013279,43.0014,279.0493,264.5657,95.5043,0,U,57918,999,15515,.33247383E-4,.653E-5,0
STARLINK-30496,2023-147G,2026-06-27T16:57:42.831072,15.27584048,.00009376,43.0039,63.8976,233.9464,126.1301,0,U,57919,999,15345,.34490291E-3,.9242E-4,0
STARLINK-30485,2023-147H,2026-06-27T23:19:52.571136,15.27575791,.00012656,43.0017,62.4494,259.8320,100.2389,0,U,57920,999,15349,.7920455E-5,-.44E-6,0
STARLINK-30492,2023-147J,2026-06-27T23:29:07.461312,15.27565926,.00015745,43.0028,62.4939,272.1689,87.8982,0,U,57921,999,15346,.47851349E-4,.1054E-4,0
STARLINK-30440,2023-147L,2026-06-27T17:40:13.490400,15.27600310,.00010122,42.9997,64.1047,257.6791,102.3948,0,U,57923,999,15345,.12081397E-3,.3066E-4,0
STARLINK-30487,2023-147M,2026-06-27T23:33:57.475872,15.27577243,.0001814,42.9997,65.9011,275.8970,84.1675,0,U,57924,999,15345,.23276957E-4,.378E-5,0
STARLINK-30452,2023-147N,2026-06-27T17:43:56.699616,15.27576346,.00019556,43.0061,64.1288,262.5267,97.5363,0,U,57925,999,15342,.8640826E-4,.2116E-4,0
